*******************************************************************************
JPL/HORIZONS                  ATLAS (C/2025 K1)            2025-Jul-02 08:13:29
Rec #:90004908 (+COV) Soln.date: 2025-Jun-26_10:13:15      # obs: 333 (79 days)
 
IAU76/J2000 helio. ecliptic osc. elements (au, days, deg., period=Julian yrs):
 
  EPOCH=  2460831.5 ! 2025-Jun-05.0000000 (TDB)    RMSW= n.a.
   EC= 1.000223274946896   QR= .3341433445188902   TP= 2460956.9426019681
   OM= 97.55767423803431   W= 271.0330458612256    IN= 147.8641415693462
   A= -1496.555476394446   MA= -.002135550751099679ADIST= 9.999999E99
   PER= 9.999999E99        N= 1.7024E-5            ANGMOM= .014063295
   DAN= .65652             DDN= .68064             L= 186.33777
   B= -32.1300087          MOID= .160485           TP= 2025-Oct-08.4426019681
 
Comet physical (GM= km^3/s^2; RAD= km):
   GM= n.a.                RAD= n.a.
   M1=  10.2     M2=  14.6     k1=  14.25  k2=  5.      PHCOF=  .030
COMET comments 
1: soln ref.= JPL#2, data arc: 2025-04-08 to 2025-06-26
2: k1=14.25, k2=5., phase coef.=0.03;
*******************************************************************************


*******************************************************************************
Ephemeris / WWW_USER Wed Jul  2 08:13:29 2025 Pasadena, USA      / Horizons    
*******************************************************************************
Target body name: ATLAS (C/2025 K1)               {source: JPL#2}
Center body name: Earth (399)                     {source: DE441}
Center-site name: (user defined site below)
*******************************************************************************
Start time      : A.D. 2025-Jul-02 02:45:00.0000 UT      
Stop  time      : A.D. 2025-Jul-02 02:46:00.0000 UT      
Step-size       : 1 minutes
*******************************************************************************
Target pole/equ : undefined
Target radii    : undefined                                                    
Center geodetic : 357.6733, 38.165641, 1.65       {E-lon(deg),Lat(deg),Alt(km)}
Center cylindric: 357.6733,5022.38622,3920.93541  {E-lon(deg),Dxy(km),Dz(km)}
Center pole/equ : ITRF93                          {East-longitude positive}
Center radii    : 6378.137, 6378.137, 6356.752 km {Equator_a, b, pole_c}       
Target primary  : Sun
Vis. interferer : MOON (R_eq= 1737.400) km        {source: DE441}
Rel. light bend : Sun                             {source: DE441}
Rel. lght bnd GM: 1.3271E+11 km^3/s^2                                          
Small-body perts: Yes                             {source: SB441-N16}
Atmos refraction: NO (AIRLESS)
RA format       : HMS
Time format     : CAL 
Calendar mode   : Mixed Julian/Gregorian
RTS-only print  : NO       
EOP file        : eop.250701.p250927                                           
EOP coverage    : DATA-BASED 1962-JAN-20 TO 2025-JUL-01. PREDICTS-> 2025-SEP-26
Units conversion: 1 au= 149597870.700 km, c= 299792.458 km/s, 1 day= 86400.0 s 
Table cut-offs 1: Elevation (-90.0deg=NO ),Airmass (>38.000=NO), Daylight (NO )
Table cut-offs 2: Solar elongation (  0.0,180.0=NO ),Local Hour Angle( 0.0=NO )
Table cut-offs 3: RA/DEC angular rate (     0.0=NO )                           
*******************************************************************************
Initial IAU76/J2000 heliocentric ecliptic osculating elements (au, days, deg.):
  EPOCH=  2460831.5 ! 2025-Jun-05.0000000 (TDB)    RMSW= n.a.                  
   EC= 1.000223274946896   QR= .3341433445188902   TP= 2460956.9426019681      
   OM= 97.55767423803431   W= 271.0330458612256    IN= 147.8641415693462       
  Equivalent ICRF heliocentric cartesian coordinates (au, au/d):
   X= 1.710065215255922E+00  Y=-1.758705334857276E+00  Z= 2.622554152319692E-01
  VX=-1.278854006761783E-02 VY= 6.991939687435760E-03 VZ=-5.259186133091688E-03
Comet physical (GM= km^3/s^2; RAD= km):                                        
   GM= n.a.                RAD= n.a.                                           
   M1=  10.2     M2=  14.6     k1=  14.25  k2=  5.      PHCOF=  .030           
******************************************************************************************************************************************************************************
 Date__(UT)__HR:MN     R.A._____(ICRF)_____DEC    T-mag   N-mag             delta      deldot     S-O-T /r     S-T-O  Sky_motion  Sky_mot_PA  RelVel-ANG  Lun_Sky_Brt  sky_SNR
******************************************************************************************************************************************************************************
$$SOE
 2025-Jul-02 02:45     22 05 52.70 +21 09 52.4   15.454  17.750  1.42881251014177 -51.6352180  113.9025 /L   26.7881   1.1006131   294.12273   -69.78976         n.a.     n.a.
 2025-Jul-02 02:46     22 05 52.63 +21 09 52.9   15.454  17.750  1.42879179883786 -51.6335916  113.9032 /L   26.7881   1.1006568   294.11989   -69.78871         n.a.     n.a.
